{"fetched_at":"2026-07-08T18:00:37.185Z","source":"https://celestrak.org/NORAD/elements/gp.php?NAME=SENTINEL&FORMAT=JSON","constellation":"sentinel-1","records":[{"OBJECT_NAME":"SENTINEL-1A","OBJECT_ID":"2014-016A","EPOCH":"2026-07-08T14:59:27.224160","CLASSIFICATION_TYPE":"U","MEAN_MOTION":14.59200126,"ECCENTRICITY":0.0001419,"INCLINATION":98.1787,"RA_OF_ASC_NODE":196.8451,"ARG_OF_PERICENTER":90.4075,"MEAN_ANOMALY":269.7287,"EPHEMERIS_TYPE":0,"NORAD_CAT_ID":39634,"ELEMENT_SET_NO":999,"REV_AT_EPOCH":65314,"BSTAR":0.000026652,"MEAN_MOTION_DOT":8e-7,"MEAN_MOTION_DDOT":0},{"OBJECT_NAME":"SENTINEL-1C","OBJECT_ID":"2024-235A","EPOCH":"2026-07-08T12:38:41.879040","CLASSIFICATION_TYPE":"U","MEAN_MOTION":14.59196597,"ECCENTRICITY":0.0001398,"INCLINATION":98.1822,"RA_OF_ASC_NODE":196.531,"ARG_OF_PERICENTER":89.0941,"MEAN_ANOMALY":271.0419,"EPHEMERIS_TYPE":0,"NORAD_CAT_ID":62261,"ELEMENT_SET_NO":999,"REV_AT_EPOCH":8452,"BSTAR":0.00011953,"MEAN_MOTION_DOT":0.00000518,"MEAN_MOTION_DDOT":0},{"OBJECT_NAME":"SENTINEL-1D","OBJECT_ID":"2025-251A","EPOCH":"2026-07-08T11:49:32.710080","CLASSIFICATION_TYPE":"U","MEAN_MOTION":14.59198103,"ECCENTRICITY":0.0001369,"INCLINATION":98.1829,"RA_OF_ASC_NODE":196.5523,"ARG_OF_PERICENTER":90.3535,"MEAN_ANOMALY":269.7821,"EPHEMERIS_TYPE":0,"NORAD_CAT_ID":66315,"ELEMENT_SET_NO":999,"REV_AT_EPOCH":3583,"BSTAR":0.0000071632,"MEAN_MOTION_DOT":-1.2e-7,"MEAN_MOTION_DDOT":0}]}
