SENTINEL-1A             
1 39634U 14016A   26189.62462065  .00000080  00000+0  26652-4 0  9996
2 39634  98.1787 196.8451 0001419  90.4075 269.7287 14.59200126653141
SENTINEL-1C             
1 62261U 24235A   26189.52687360  .00000518  00000+0  11953-3 0  9991
2 62261  98.1822 196.5310 0001398  89.0941 271.0419 14.59196597 84525
SENTINEL-1D             
1 66315U 25251A   26189.49273970 -.00000012  00000+0  71632-5 0  9990
2 66315  98.1829 196.5523 0001369  90.3535 269.7821 14.59198103 35830
